[{"OBJECT_NAME":"STARLINK-5633","OBJECT_ID":"2023-014V","EPOCH":"2026-03-09T11:19:05.752704","MEAN_MOTION":14.98332032,"ECCENTRICITY":0.00035241,"INCLINATION":69.9989,"RA_OF_ASC_NODE":84.8422,"ARG_OF_PERICENTER":267.6974,"MEAN_ANOMALY":92.3782,"EPHEMERIS_TYPE":0,"CLASSIFICATION_TYPE":"U","NORAD_CAT_ID":55410,"ELEMENT_SET_NO":999,"REV_AT_EPOCH":17153,"BSTAR":-3.074239e-6,"MEAN_MOTION_DOT":-1.3e-6,"MEAN_MOTION_DDOT":0},{"OBJECT_NAME":"ICEYE-X43","OBJECT_ID":"2024-149BZ","EPOCH":"2026-03-09T22:37:06.906720","MEAN_MOTION":14.99337202,"ECCENTRICITY":0.00024583,"INCLINATION":97.6823,"RA_OF_ASC_NODE":147.2527,"ARG_OF_PERICENTER":59.9226,"MEAN_ANOMALY":300.2241,"EPHEMERIS_TYPE":0,"CLASSIFICATION_TYPE":"U","NORAD_CAT_ID":60539,"ELEMENT_SET_NO":999,"REV_AT_EPOCH":8524,"BSTAR":0.00036668005,"MEAN_MOTION_DOT":4.424e-5,"MEAN_MOTION_DDOT":0}]
